ONEWEB-0574             
1 56063U 23043T   23312.38520174 -.00000269  00000+0 -68255-3 0  9990
2 56063  87.9240  73.4590 0001217 112.8449 247.2814 13.21825340 32530
ONEWEB-0575             
1 56064U 23043U   23312.58334491  .00000015  00000+0  00000+0 0  9995
2 56064  87.6787  58.4882 0001504  53.8736  41.9384 13.66918096  5589
ONEWEB-0576             
1 56065U 23043V   23312.58334491  .00000015  00000+0  00000+0 0  9996
2 56065  87.6891  58.4757 0002128  44.7942 316.9049 13.65274811  5445
ONEWEB-0577             
1 56066U 23043W   23312.58334491  .00000015  00000+0  00000+0 0  9997
2 56066  87.6673  58.5102 0004150  78.6533 324.4618 13.67947299  5566
ONEWEB-0578             
1 56067U 23043X   23312.37259899  .00000197  00000+0  44598-3 0  9998
2 56067  87.9240  73.4563 0001703 103.6984 256.4340 13.21825947 32490
ONEWEB-0579             
1 56068U 23043Y   23312.36313295  .00000187  00000+0  42126-3 0  9993
2 56068  87.9237  73.4603 0001451  81.5943 278.5355 13.21828377 32504
ONEWEB-0581             
1 56069U 23043Z   23312.58334491  .00000015  00000+0  00000+0 0  9990
2 56069  87.6998  58.5445 0002378  22.0534 255.1324 13.64622092  5486
ONEWEB-0609             
1 56070U 23043AA  23312.40234311  .00000018  00000+0  13712-4 0  9995
2 56070  87.8954  88.7078 0001409  99.0873 261.0417 13.15549869 31296
